{
  "norad_id": 65307,
  "name": "HULIANWANG DIGUI-75",
  "history": [
    {
      "epoch": "2026-04-09T20:10:48.076608Z",
      "apogee_km": 1149.965794850521,
      "perigee_km": 1148.6665564324048,
      "latitude_deg": 1.958285661466853e-05,
      "longitude_deg": -50.01675133074298,
      "height_km": 1149.7576505099698,
      "semi_major_axis_km": 7527.453175641463,
      "eccentricity": 8.63e-05,
      "inclination_deg": 50.0074,
      "raan_deg": 90.7668,
      "arg_perigee_deg": 275.8443,
      "mean_anomaly_deg": 84.2331,
      "mean_motion_rev_day": 13.29323456
    },
    {
      "epoch": "2026-04-10T12:25:07.744800Z",
      "apogee_km": 1149.9610933838585,
      "perigee_km": 1148.6708879412581,
      "latitude_deg": -7.389431183290866e-05,
      "longitude_deg": 63.30771447138074,
      "height_km": 1149.7298249506364,
      "semi_major_axis_km": 7527.452990662558,
      "eccentricity": 8.57e-05,
      "inclination_deg": 50.0075,
      "raan_deg": 88.3402,
      "arg_perigee_deg": 278.3606,
      "mean_anomaly_deg": 81.7168,
      "mean_motion_rev_day": 13.29323505
    },
    {
      "epoch": "2026-04-11T20:53:47.088096Z",
      "apogee_km": 1149.9565504842585,
      "perigee_km": 1148.6753779897454,
      "latitude_deg": 3.616448867661748e-05,
      "longitude_deg": -70.0431340260638,
      "height_km": 1149.6675681290503,
      "semi_major_axis_km": 7527.452964237002,
      "eccentricity": 8.51e-05,
      "inclination_deg": 50.0077,
      "raan_deg": 83.487,
      "arg_perigee_deg": 284.0964,
      "mean_anomaly_deg": 75.9814,
      "mean_motion_rev_day": 13.29323512
    },
    {
      "epoch": "2026-04-13T05:22:26.427936Z",
      "apogee_km": 1149.9479609368882,
      "perigee_km": 1148.6834994272722,
      "latitude_deg": -2.6164701559237877e-05,
      "longitude_deg": 156.60598996772663,
      "height_km": 1149.6130654538108,
      "semi_major_axis_km": 7527.45273018208,
      "eccentricity": 8.399e-05,
      "inclination_deg": 50.008,
      "raan_deg": 78.6339,
      "arg_perigee_deg": 289.4278,
      "mean_anomaly_deg": 70.6503,
      "mean_motion_rev_day": 13.29323574
    },
    {
      "epoch": "2026-04-14T21:04:07.835808Z",
      "apogee_km": 1149.9430931202778,
      "perigee_km": 1148.6875140760367,
      "latitude_deg": -8.268791737897626e-06,
      "longitude_deg": -86.37813508260842,
      "height_km": 1149.5489862551112,
      "semi_major_axis_km": 7527.4523035981565,
      "eccentricity": 8.34e-05,
      "inclination_deg": 50.0084,
      "raan_deg": 72.7025,
      "arg_perigee_deg": 295.8719,
      "mean_anomaly_deg": 64.2067,
      "mean_motion_rev_day": 13.29323687
    },
    {
      "epoch": "2026-04-15T20:31:29.570304Z",
      "apogee_km": 1149.9383048207337,
      "perigee_km": 1148.6917587642693,
      "latitude_deg": 4.090848147336021e-05,
      "longitude_deg": -82.68685776888476,
      "height_km": 1149.5162452369534,
      "semi_major_axis_km": 7527.452031792502,
      "eccentricity": 8.28e-05,
      "inclination_deg": 50.0086,
      "raan_deg": 69.1976,
      "arg_perigee_deg": 299.4454,
      "mean_anomaly_deg": 60.6336,
      "mean_motion_rev_day": 13.29323759
    },
    {
      "epoch": "2026-04-16T19:58:51.297024Z",
      "apogee_km": 1149.9395196059959,
      "perigee_km": 1148.6899626169707,
      "latitude_deg": 4.60016447714744e-06,
      "longitude_deg": -78.99561934301013,
      "height_km": 1149.485993546808,
      "semi_major_axis_km": 7527.451741111483,
      "eccentricity": 8.3e-05,
      "inclination_deg": 50.0088,
      "raan_deg": 65.6927,
      "arg_perigee_deg": 302.5727,
      "mean_anomaly_deg": 57.5065,
      "mean_motion_rev_day": 13.29323836
    },
    {
      "epoch": "2026-04-17T23:02:44.068992Z",
      "apogee_km": 1149.9286463302142,
      "perigee_km": 1148.700918944467,
      "latitude_deg": 2.2877647387217223e-05,
      "longitude_deg": -130.12109190596254,
      "height_km": 1149.4507785713236,
      "semi_major_axis_km": 7527.45178263734,
      "eccentricity": 8.155e-05,
      "inclination_deg": 50.009,
      "raan_deg": 61.6486,
      "arg_perigee_deg": 307.252,
      "mean_anomaly_deg": 52.8278,
      "mean_motion_rev_day": 13.29323825
    },
    {
      "epoch": "2026-04-18T20:41:50.290368Z",
      "apogee_km": 1149.9231026767238,
      "perigee_km": 1148.7066664521772,
      "latitude_deg": -1.414167553166202e-05,
      "longitude_deg": -99.02165004088576,
      "height_km": 1149.4235906663716,
      "semi_major_axis_km": 7527.45188456445,
      "eccentricity": 8.08e-05,
      "inclination_deg": 50.0092,
      "raan_deg": 58.4132,
      "arg_perigee_deg": 310.9791,
      "mean_anomaly_deg": 49.1011,
      "mean_motion_rev_day": 13.29323798
    },
    {
      "epoch": "2026-04-19T20:09:12.024000Z",
      "apogee_km": 1149.9152090130565,
      "perigee_km": 1148.7138277507229,
      "latitude_deg": 2.0682966294076594e-05,
      "longitude_deg": -95.33038405004704,
      "height_km": 1149.3952645502447,
      "semi_major_axis_km": 7527.451518381889,
      "eccentricity": 7.98e-05,
      "inclination_deg": 50.0094,
      "raan_deg": 54.9083,
      "arg_perigee_deg": 315.2749,
      "mean_anomaly_deg": 44.8059,
      "mean_motion_rev_day": 13.29323895
    },
    {
      "epoch": "2026-04-20T14:11:47.216544Z",
      "apogee_km": 1149.915525911836,
      "perigee_km": 1148.7139940619081,
      "latitude_deg": -2.760400105934744e-05,
      "longitude_deg": -9.41416561518045,
      "height_km": 1149.3730415889004,
      "semi_major_axis_km": 7527.451759986872,
      "eccentricity": 7.981e-05,
      "inclination_deg": 50.0096,
      "raan_deg": 52.2122,
      "arg_perigee_deg": 318.3988,
      "mean_anomaly_deg": 41.6823,
      "mean_motion_rev_day": 13.29323831
    },
    {
      "epoch": "2026-04-21T20:52:11.028576Z",
      "apogee_km": 1149.9090586890616,
      "perigee_km": 1148.7197213694371,
      "latitude_deg": -3.0325276537222985e-06,
      "longitude_deg": -115.3562719832384,
      "height_km": 1149.3447813747318,
      "semi_major_axis_km": 7527.4513900292495,
      "eccentricity": 7.9e-05,
      "inclination_deg": 50.0099,
      "raan_deg": 47.629,
      "arg_perigee_deg": 323.3498,
      "mean_anomaly_deg": 36.732,
      "mean_motion_rev_day": 13.29323929
    },
    {
      "epoch": "2026-04-22T18:31:17.245632Z",
      "apogee_km": 1149.9072058643014,
      "perigee_km": 1148.720879579967,
      "latitude_deg": -7.300709648237609e-06,
      "longitude_deg": -84.25648699160921,
      "height_km": 1149.3231940083722,
      "semi_major_axis_km": 7527.451042722134,
      "eccentricity": 7.88e-05,
      "inclination_deg": 50.0101,
      "raan_deg": 44.3939,
      "arg_perigee_deg": 327.1502,
      "mean_anomaly_deg": 32.9321,
      "mean_motion_rev_day": 13.29324021
    },
    {
      "epoch": "2026-04-23T12:33:52.420896Z",
      "apogee_km": 1149.9038100288008,
      "perigee_km": 1148.7236563028546,
      "latitude_deg": 4.824315576917396e-05,
      "longitude_deg": 1.660090315727631,
      "height_km": 1149.309332344912,
      "semi_major_axis_km": 7527.450733165827,
      "eccentricity": 7.839e-05,
      "inclination_deg": 50.0102,
      "raan_deg": 41.698,
      "arg_perigee_deg": 330.1572,
      "mean_anomaly_deg": 29.9256,
      "mean_motion_rev_day": 13.29324103
    },
    {
      "epoch": "2026-04-24T19:14:16.208736Z",
      "apogee_km": 1149.8975688639011,
      "perigee_km": 1148.729308555813,
      "latitude_deg": -4.663830885630743e-06,
      "longitude_deg": -104.28197802378874,
      "height_km": 1149.2927632205815,
      "semi_major_axis_km": 7527.450438709857,
      "eccentricity": 7.76e-05,
      "inclination_deg": 50.0104,
      "raan_deg": 37.1148,
      "arg_perigee_deg": 334.6921,
      "mean_anomaly_deg": 25.3913,
      "mean_motion_rev_day": 13.29324181
    },
    {
      "epoch": "2026-04-25T20:29:53.445120Z",
      "apogee_km": 1149.889746934965,
      "perigee_km": 1148.7365415728646,
      "latitude_deg": -2.4430245280694196e-06,
      "longitude_deg": -127.9988334411369,
      "height_km": 1149.2811470889178,
      "semi_major_axis_km": 7527.450144253914,
      "eccentricity": 7.66e-05,
      "inclination_deg": 50.0106,
      "raan_deg": 33.3405,
      "arg_perigee_deg": 339.2896,
      "mean_anomaly_deg": 20.7945,
      "mean_motion_rev_day": 13.29324259
    }
  ]
}